start=new Date('2022-05-17T00:00:00.000Z').valueOf();
sats=[{"MEAN_MOTION_DDOT":"0.0000000000000","ARG_OF_PERICENTER":"45.8929","MEAN_MOTION_DOT":"-0.00062128","TIME_SYSTEM":"UTC","EPOCH":"2022-05-16T14:00:01.000224","MEAN_MOTION":"15.08856506","SEMIMAJOR_AXIS":"6917.830","ECCENTRICITY":"0.00017070","PERIOD":"95.437","FILE":"3448591","MEAN_ELEMENT_THEORY":"SGP4","EPHEMERIS_TYPE":"0","APOAPSIS":"540.876","TLE_LINE1":"1 51725U 22016M   22136.58334491 -.00062128  00000-0 -39176-2 0  9991","BSTAR":"-0.00391760000000","ELEMENT_SET_NO":"999","CLASSIFICATION_TYPE":"U","REV_AT_EPOCH":"130","COUNTRY_CODE":"US","PERIAPSIS":"538.514","OBJECT_TYPE":"PAYLOAD","SITE":"AFETR","TLE_LINE2":"2 51725  53.2146 103.0162 0001707  45.8929 101.5295 15.08856506  1309","RA_OF_ASC_NODE":"103.0162","RCS_SIZE":"LARGE","REF_FRAME":"TEME","OBJECT_ID":"2022-016M","OBJECT_NAME":"STARLINK-3522","CENTER_NAME":"EARTH","GP_ID":"203701015","INCLINATION":"53.2146","LAUNCH_DATE":"2022-02-21","NORAD_CAT_ID":"51725","DECAY_DATE":null,"MEAN_ANOMALY":"101.5295"},{"APOAPSIS":"534.625","TLE_LINE1":"1 51726U 22016N   22136.91667824 -.00721512  00000-0 -46020-1 0  9992","FILE":"3449008","EPHEMERIS_TYPE":"0","MEAN_ELEMENT_THEORY":"SGP4","TIME_SYSTEM":"UTC","EPOCH":"2022-05-16T22:00:00.999936","MEAN_MOTION_DOT":"-0.00721512","MEAN_MOTION_DDOT":"0.0000000000000","ARG_OF_PERICENTER":"43.1450","SEMIMAJOR_AXIS":"6911.598","ECCENTRICITY":"0.00016810","PERIOD":"95.308","MEAN_MOTION":"15.10897794","NORAD_CAT_ID":"51726","GP_ID":"203710605","LAUNCH_DATE":"2022-02-21","INCLINATION":"53.2176","CENTER_NAME":"EARTH","DECAY_DATE":null,"MEAN_ANOMALY":"305.6973","OBJECT_TYPE":"PAYLOAD","COUNTRY_CODE":"US","PERIAPSIS":"532.301","REV_AT_EPOCH":"1436","CLASSIFICATION_TYPE":"U","BSTAR":"-0.04602000000000","ELEMENT_SET_NO":"999","OBJECT_NAME":"STARLINK-3527","RCS_SIZE":"LARGE","OBJECT_ID":"2022-016N","REF_FRAME":"TEME","TLE_LINE2":"2 51726  53.2176  91.5217 0001681  43.1450 305.6973 15.10897794 14363","SITE":"AFETR","RA_OF_ASC_NODE":"91.5217"},{"FILE":"3449019","MEAN_ELEMENT_THEORY":"SGP4","EPHEMERIS_TYPE":"0","APOAPSIS":"541.079","TLE_LINE1":"1 51727U 22016P   22136.91667824  .00017758  00000-0  11312-2 0  9998","ARG_OF_PERICENTER":"52.1207","MEAN_MOTION_DDOT":"0.0000000000000","MEAN_MOTION_DOT":"0.00017758","TIME_SYSTEM":"UTC","EPOCH":"2022-05-16T22:00:00.999936","MEAN_MOTION":"15.08834250","SEMIMAJOR_AXIS":"6917.898","PERIOD":"95.438","ECCENTRICITY":"0.00019030","CENTER_NAME":"EARTH","GP_ID":"203710642","LAUNCH_DATE":"2022-02-21","INCLINATION":"53.2149","NORAD_CAT_ID":"51727","DECAY_DATE":null,"MEAN_ANOMALY":"146.8718","BSTAR":"0.00113120000000","ELEMENT_SET_NO":"999","CLASSIFICATION_TYPE":"U","REV_AT_EPOCH":"1422","COUNTRY_CODE":"US","OBJECT_TYPE":"PAYLOAD","PERIAPSIS":"538.446","SITE":"AFETR","TLE_LINE2":"2 51727  53.2149 101.5179 0001903  52.1207 146.8718 15.08834250 14222","RA_OF_ASC_NODE":"101.5179","RCS_SIZE":"LARGE","REF_FRAME":"TEME","OBJECT_ID":"2022-016P","OBJECT_NAME":"STARLINK-3532"},{"SITE":"AFETR","TLE_LINE2":"2 51728  53.2177  91.5218 0001746  39.5572 347.9706 15.11153089 14448","RA_OF_ASC_NODE":"91.5218","RCS_SIZE":"LARGE","OBJECT_ID":"2022-016Q","REF_FRAME":"TEME","OBJECT_NAME":"STARLINK-3448","ELEMENT_SET_NO":"999","BSTAR":"-0.04566800000000","CLASSIFICATION_TYPE":"U","REV_AT_EPOCH":"1444","COUNTRY_CODE":"US","PERIAPSIS":"531.478","OBJECT_TYPE":"PAYLOAD","DECAY_DATE":null,"MEAN_ANOMALY":"347.9706","CENTER_NAME":"EARTH","LAUNCH_DATE":"2022-02-21","GP_ID":"203710638","INCLINATION":"53.2177","NORAD_CAT_ID":"51728","MEAN_MOTION":"15.11153089","SEMIMAJOR_AXIS":"6910.819","PERIOD":"95.291","ECCENTRICITY":"0.00017460","ARG_OF_PERICENTER":"39.5572","MEAN_MOTION_DDOT":"0.0000000000000","MEAN_MOTION_DOT":"-0.00721136","EPOCH":"2022-05-16T22:00:00.999936","TIME_SYSTEM":"UTC","EPHEMERIS_TYPE":"0","FILE":"3449019","MEAN_ELEMENT_THEORY":"SGP4","APOAPSIS":"533.891","TLE_LINE1":"1 51728U 22016Q   22136.91667824 -.00721136  00000-0 -45668-1 0  9993"},{"REV_AT_EPOCH":"1443","COUNTRY_CODE":"US","PERIAPSIS":"532.723","OBJECT_TYPE":"PAYLOAD","BSTAR":"-0.04618900000000","ELEMENT_SET_NO":"999","CLASSIFICATION_TYPE":"U","RCS_SIZE":"LARGE","REF_FRAME":"TEME","OBJECT_ID":"2022-016R","OBJECT_NAME":"STARLINK-3523","SITE":"AFETR","TLE_LINE2":"2 51729  53.2176  91.5215 0001634  46.5626 282.8794 15.10770060 14435","RA_OF_ASC_NODE":"91.5215","INCLINATION":"53.2176","GP_ID":"203711265","LAUNCH_DATE":"2022-02-21","NORAD_CAT_ID":"51729","CENTER_NAME":"EARTH","DECAY_DATE":null,"MEAN_ANOMALY":"282.8794","MEAN_MOTION_DOT":"-0.00721582","EPOCH":"2022-05-16T22:00:00.999936","TIME_SYSTEM":"UTC","MEAN_MOTION_DDOT":"0.0000000000000","ARG_OF_PERICENTER":"46.5626","MEAN_MOTION":"15.10770060","SEMIMAJOR_AXIS":"6911.987","PERIOD":"95.316","ECCENTRICITY":"0.00016340","APOAPSIS":"534.982","TLE_LINE1":"1 51729U 22016R   22136.91667824 -.00721582  00000-0 -46189-1 0  9998","MEAN_ELEMENT_THEORY":"SGP4","FILE":"3449029","EPHEMERIS_TYPE":"0"},{"ECCENTRICITY":"0.00017410","PERIOD":"95.275","SEMIMAJOR_AXIS":"6910.041","MEAN_MOTION":"15.11408373","ARG_OF_PERICENTER":"40.5124","MEAN_MOTION_DDOT":"0.0000000000000","EPOCH":"2022-05-16T22:00:00.999936","TIME_SYSTEM":"UTC","MEAN_MOTION_DOT":"-0.00720750","EPHEMERIS_TYPE":"0","FILE":"3449009","MEAN_ELEMENT_THEORY":"SGP4","TLE_LINE1":"1 51730U 22016S   22136.91667824 -.00720750  00000-0 -45318-1 0  9999","APOAPSIS":"533.109","RA_OF_ASC_NODE":"91.5215","SITE":"AFETR","TLE_LINE2":"2 51730  53.2176  91.5215 0001741  40.5124  25.5474 15.11408373 14379","OBJECT_NAME":"STARLINK-3530","REF_FRAME":"TEME","OBJECT_ID":"2022-016S","RCS_SIZE":"LARGE","CLASSIFICATION_TYPE":"U","BSTAR":"-0.04531800000000","ELEMENT_SET_NO":"999","OBJECT_TYPE":"PAYLOAD","COUNTRY_CODE":"US","PERIAPSIS":"530.703","REV_AT_EPOCH":"1437","MEAN_ANOMALY":"25.5474","DECAY_DATE":null,"CENTER_NAME":"EARTH","NORAD_CAT_ID":"51730","INCLINATION":"53.2176","GP_ID":"203710615","LAUNCH_DATE":"2022-02-21"},{"GP_ID":"203710608","INCLINATION":"53.2177","LAUNCH_DATE":"2022-02-21","NORAD_CAT_ID":"51731","CENTER_NAME":"EARTH","MEAN_ANOMALY":"330.8957","DECAY_DATE":null,"REV_AT_EPOCH":"1441","COUNTRY_CODE":"US","PERIAPSIS":"531.820","OBJECT_TYPE":"PAYLOAD","ELEMENT_SET_NO":"999","BSTAR":"-0.04584300000000","CLASSIFICATION_TYPE":"U","OBJECT_ID":"2022-016T","REF_FRAME":"TEME","RCS_SIZE":"MEDIUM","OBJECT_NAME":"STARLINK-3514","RA_OF_ASC_NODE":"91.5218","TLE_LINE2":"2 51731  53.2177  91.5218 0001814  37.3085 330.8957 15.11025445 14413","SITE":"AFETR","TLE_LINE1":"1 51731U 22016T   22136.91667824 -.00721324  00000-0 -45843-1 0  9991","APOAPSIS":"534.327","MEAN_ELEMENT_THEORY":"SGP4","FILE":"3449009","EPHEMERIS_TYPE":"0","MEAN_MOTION_DOT":"-0.00721324","TIME_SYSTEM":"UTC","EPOCH":"2022-05-16T22:00:00.999936","MEAN_MOTION_DDOT":"0.0000000000000","ARG_OF_PERICENTER":"37.3085","MEAN_MOTION":"15.11025445","ECCENTRICITY":"0.00018140","PERIOD":"95.300","SEMIMAJOR_AXIS":"6911.208"},{"ECCENTRICITY":"0.00019510","PERIOD":"95.267","SEMIMAJOR_AXIS":"6909.652","MEAN_MOTION":"15.11536138","EPOCH":"2022-05-16T22:00:00.999936","TIME_SYSTEM":"UTC","MEAN_MOTION_DOT":"-0.00720733","ARG_OF_PERICENTER":"34.5206","MEAN_MOTION_DDOT":"0.0000000000000","TLE_LINE1":"1 51732U 22016U   22136.91667824 -.00720733  00000-0 -45154-1 0  9990","APOAPSIS":"532.865","FILE":"3449009","EPHEMERIS_TYPE":"0","MEAN_ELEMENT_THEORY":"SGP4","OBJECT_NAME":"STARLINK-3518","OBJECT_ID":"2022-016U","REF_FRAME":"TEME","RCS_SIZE":"LARGE","RA_OF_ASC_NODE":"91.5212","SITE":"AFETR","TLE_LINE2":"2 51732  53.2176  91.5212 0001951  34.5206  50.7476 15.11536138 14446","COUNTRY_CODE":"US","PERIAPSIS":"530.169","OBJECT_TYPE":"PAYLOAD","REV_AT_EPOCH":"1444","CLASSIFICATION_TYPE":"U","ELEMENT_SET_NO":"999","BSTAR":"-0.04515400000000","MEAN_ANOMALY":"50.7476","DECAY_DATE":null,"NORAD_CAT_ID":"51732","GP_ID":"203711115","LAUNCH_DATE":"2022-02-21","INCLINATION":"53.2176","CENTER_NAME":"EARTH"},{"DECAY_DATE":null,"MEAN_ANOMALY":"14.3112","GP_ID":"203710637","LAUNCH_DATE":"2022-02-21","INCLINATION":"53.2176","NORAD_CAT_ID":"51733","CENTER_NAME":"EARTH","RCS_SIZE":"LARGE","OBJECT_ID":"2022-016V","REF_FRAME":"TEME","OBJECT_NAME":"STARLINK-3525","SITE":"AFETR","TLE_LINE2":"2 51733  53.2176  91.5217 0001968  32.5018  14.3112 15.11280716 14372","RA_OF_ASC_NODE":"91.5217","REV_AT_EPOCH":"1437","COUNTRY_CODE":"US","OBJECT_TYPE":"PAYLOAD","PERIAPSIS":"530.935","BSTAR":"-0.04549100000000","ELEMENT_SET_NO":"999","CLASSIFICATION_TYPE":"U","APOAPSIS":"533.655","TLE_LINE1":"1 51733U 22016V   22136.91667824 -.00720942  00000-0 -45491-1 0  9997","EPHEMERIS_TYPE":"0","FILE":"3449019","MEAN_ELEMENT_THEORY":"SGP4","MEAN_MOTION":"15.11280716","SEMIMAJOR_AXIS":"6910.430","PERIOD":"95.283","ECCENTRICITY":"0.00019680","MEAN_MOTION_DOT":"-0.00720942","EPOCH":"2022-05-16T22:00:00.999936","TIME_SYSTEM":"UTC","MEAN_MOTION_DDOT":"0.0000000000000","ARG_OF_PERICENTER":"32.5018"},{"SEMIMAJOR_AXIS":"6915.739","PERIOD":"95.393","ECCENTRICITY":"0.00019520","MEAN_MOTION":"15.09540758","EPOCH":"2022-05-16T22:00:00.999936","TIME_SYSTEM":"UTC","MEAN_MOTION_DOT":"-0.00716238","MEAN_MOTION_DDOT":"0.0000000000000","ARG_OF_PERICENTER":"39.5808","APOAPSIS":"538.954","TLE_LINE1":"1 51734U 22016W   22136.91667824 -.00716238  00000-0 -47408-1 0  9991","FILE":"3449009","MEAN_ELEMENT_THEORY":"SGP4","EPHEMERIS_TYPE":"0","OBJECT_NAME":"STARLINK-3450","RCS_SIZE":"LARGE","REF_FRAME":"TEME","OBJECT_ID":"2022-016W","SITE":"AFETR","TLE_LINE2":"2 51734  53.2175  91.5166 0001952  39.5808 113.6634 15.09540758 14411","RA_OF_ASC_NODE":"91.5166","COUNTRY_CODE":"US","PERIAPSIS":"536.254","OBJECT_TYPE":"PAYLOAD","REV_AT_EPOCH":"1441","CLASSIFICATION_TYPE":"U","BSTAR":"-0.04740800000000","ELEMENT_SET_NO":"999","DECAY_DATE":null,"MEAN_ANOMALY":"113.6634","NORAD_CAT_ID":"51734","GP_ID":"203710614","INCLINATION":"53.2175","LAUNCH_DATE":"2022-02-21","CENTER_NAME":"EARTH"}];
